GPS BIIR-08             
1 27663U 03005A   26095.76246124  .00000008  00000+0  00000+0 0  9992
2 27663  54.8986 217.8451 0148450  52.8937 272.6776  2.00564553169856
GPS BIIR-11             
1 28190U 04009A   26093.34366605 -.00000035  00000+0  00000+0 0  9993
2 28190  54.8926 278.7093 0112444 169.9755   4.1137  2.00557195161446
GPS BIIR-13             
1 28474U 04045A   26095.75422909 -.00000082  00000+0  00000+0 0  9997
2 28474  55.1768 327.8146 0170337 314.0563 225.7789  2.00575150156976
GPS BIIR-14M            
1 28874U 05038A   26095.81134223 -.00000014  00000+0  00000+0 0  9995
2 28874  54.9383 276.0964 0128061 295.7126 245.5600  2.00570845150387
METEOSAT-9 (MSG-2)      
1 28912U 05049B   26095.54003167  .00000127  00000+0  00000+0 0  9996
2 28912   9.1990  54.8663 0000778  50.0692 329.0058  1.00277791  6274
GPS BIIR-16M            
1 29601U 06052A   26095.62317056  .00000008  00000+0  00000+0 0  9999
2 29601  54.9491 216.8814 0087069  89.9450 271.0399  2.00553890141950
GPS BIIR-17M            
1 32260U 07047A   26094.93149622 -.00000013  00000+0  00000+0 0  9991
2 32260  54.0414  83.0831 0164095  86.2491 275.6217  2.00559152135346
GPS BIIR-18M            
1 32384U 07062A   26095.00291115 -.00000022  00000+0  00000+0 0  9999
2 32384  55.0910 277.0926 0033911 161.3571  17.5151  2.00555625134048
GOES 14                 
1 35491U 09033A   26095.78109544  .00000045  00000+0  00000+0 0  9994
2 35491   1.5030  83.9171 0001844 299.1245 274.7211  1.00112185  5863
GOES 15                 
1 36411U 10008A   26095.80732296  .00000024  00000+0  00000+0 0  9997
2 36411   1.0872  84.2709 0003425  17.9810  85.7619  1.00271609 58910
GSAT0101 (GALILEO-PFM)  
1 37846U 11060A   26095.11194268 -.00000093  00000+0  00000+0 0  9991
2 37846  57.0168 343.7451 0004096  18.3596 341.7021  1.70475898 89874
GSAT0102 (GALILEO-FM2)  
1 37847U 11060B   26094.16007975 -.00000095  00000+0  00000+0 0  9996
2 37847  57.0179 343.7712 0004811   9.1881 172.2383  1.70475892 89868
LUCH 5A                 
1 37951U 11074B   26095.70673557 -.00000046  00000+0  00000+0 0  9999
2 37951   8.5703  74.8592 0003142 287.6374 252.8557  1.00271539 52326
METEOSAT-10 (MSG-3)     
1 38552U 12035B   26095.74495572 -.00000003  00000+0  00000+0 0  9991
2 38552   4.5007  61.3190 0002400 297.4752 103.5053  1.00273640 50132
SARSAT 13 (METOP-B)     
1 38771U 12049A   26095.82714125  .00000161  00000+0  93537-4 0  9992
2 38771  98.6583 148.7445 0002491 168.4775 191.6459 14.21428016702984
GPS BIIF-3              
1 38833U 12053A   26095.52545654  .00000021  00000+0  00000+0 0  9995
2 38833  53.5703 146.5768 0177431  64.9866 296.9263  2.00566362 97989
GSAT0103 (GALILEO-FM3)  
1 38857U 12055A   26094.56573666  .00000030  00000+0  00000+0 0  9990
2 38857  55.7599 103.5640 0005910 291.5496  68.4144  1.70473519 83750
